start=new Date('2022-06-02T00:00:00.000Z').valueOf();
sats=[{"MEAN_MOTION_DDOT":"0.0000000000000","TLE_LINE1":"1 47746U 21017AA  22152.70760913  .00002966  00000-0  21797-3 0  9996","ECCENTRICITY":"0.00016020","SEMIMAJOR_AXIS":"6925.367","GP_ID":"205125547","COUNTRY_CODE":"US","ELEMENT_SET_NO":"999","NORAD_CAT_ID":"47746","MEAN_ANOMALY":"296.0409","MEAN_ELEMENT_THEORY":"SGP4","OBJECT_TYPE":"PAYLOAD","ARG_OF_PERICENTER":"64.0745","TLE_LINE2":"2 47746  53.0563 273.1347 0001602  64.0745 296.0409 15.06393985 70178","PERIOD":"95.593","BSTAR":"0.00021797000000","PERIAPSIS":"546.123","CLASSIFICATION_TYPE":"U","APOAPSIS":"548.341","SITE":"AFETR","DECAY_DATE":null,"EPOCH":"2022-06-01T16:58:57.428832","REF_FRAME":"TEME","EPHEMERIS_TYPE":"0","OBJECT_NAME":"STARLINK-2160","REV_AT_EPOCH":"7017","OBJECT_ID":"2021-017AA","LAUNCH_DATE":"2021-03-04","CENTER_NAME":"EARTH","MEAN_MOTION_DOT":"0.00002966","RA_OF_ASC_NODE":"273.1347","INCLINATION":"53.0563","RCS_SIZE":"LARGE","TIME_SYSTEM":"UTC","FILE":"3476255","MEAN_MOTION":"15.06393985"},{"MEAN_ELEMENT_THEORY":"SGP4","MEAN_ANOMALY":"304.8896","NORAD_CAT_ID":"47747","ELEMENT_SET_NO":"999","COUNTRY_CODE":"US","GP_ID":"205124319","SEMIMAJOR_AXIS":"6925.327","TLE_LINE1":"1 47747U 21017AB  22152.57214602  .00001599  00000-0  12622-3 0  9999","ECCENTRICITY":"0.00015620","MEAN_MOTION_DDOT":"0.0000000000000","APOAPSIS":"548.274","CLASSIFICATION_TYPE":"U","PERIAPSIS":"546.111","BSTAR":"0.00012622000000","PERIOD":"95.592","TLE_LINE2":"2 47747  53.0540 263.7385 0001562  55.2240 304.8896 15.06406880 70333","ARG_OF_PERICENTER":"55.2240","OBJECT_TYPE":"PAYLOAD","LAUNCH_DATE":"2021-03-04","REV_AT_EPOCH":"7033","OBJECT_ID":"2021-017AB","OBJECT_NAME":"STARLINK-2161","EPHEMERIS_TYPE":"0","REF_FRAME":"TEME","EPOCH":"2022-06-01T13:43:53.416128","DECAY_DATE":null,"SITE":"AFETR","MEAN_MOTION":"15.06406880","FILE":"3476255","TIME_SYSTEM":"UTC","RCS_SIZE":"LARGE","INCLINATION":"53.0540","RA_OF_ASC_NODE":"263.7385","CENTER_NAME":"EARTH","MEAN_MOTION_DOT":"0.00001599"},{"MEAN_MOTION_DOT":"-0.00004745","CENTER_NAME":"EARTH","RA_OF_ASC_NODE":"263.7744","INCLINATION":"53.0544","RCS_SIZE":"LARGE","TIME_SYSTEM":"UTC","MEAN_MOTION":"15.06424161","FILE":"3476255","SITE":"AFETR","DECAY_DATE":null,"EPOCH":"2022-06-01T13:33:16.343136","REF_FRAME":"TEME","EPHEMERIS_TYPE":"0","OBJECT_NAME":"STARLINK-2162","REV_AT_EPOCH":"7030","OBJECT_ID":"2021-017AC","LAUNCH_DATE":"2021-03-04","OBJECT_TYPE":"PAYLOAD","ARG_OF_PERICENTER":"53.6330","TLE_LINE2":"2 47748  53.0544 263.7744 0001617  53.6330 306.4808 15.06424161 70300","PERIOD":"95.591","BSTAR":"-0.00029967000000","PERIAPSIS":"546.020","APOAPSIS":"548.259","CLASSIFICATION_TYPE":"U","MEAN_MOTION_DDOT":"0.0000000000000","TLE_LINE1":"1 47748U 21017AC  22152.56477249 -.00004745  00000-0 -29967-3 0  9995","ECCENTRICITY":"0.00016170","SEMIMAJOR_AXIS":"6925.275","GP_ID":"205124070","COUNTRY_CODE":"US","ELEMENT_SET_NO":"999","NORAD_CAT_ID":"47748","MEAN_ANOMALY":"306.4808","MEAN_ELEMENT_THEORY":"SGP4"},{"BSTAR":"0.00022712000000","PERIOD":"95.592","APOAPSIS":"548.125","CLASSIFICATION_TYPE":"U","PERIAPSIS":"546.291","OBJECT_TYPE":"PAYLOAD","TLE_LINE2":"2 47749  53.0548 263.7113 0001324  66.9513 293.1615 15.06401691 70301","ARG_OF_PERICENTER":"66.9513","COUNTRY_CODE":"US","MEAN_ANOMALY":"293.1615","MEAN_ELEMENT_THEORY":"SGP4","ELEMENT_SET_NO":"999","NORAD_CAT_ID":"47749","ECCENTRICITY":"0.00013240","TLE_LINE1":"1 47749U 21017AD  22152.57951599  .00003103  00000-0  22712-3 0  9998","MEAN_MOTION_DDOT":"0.0000000000000","SEMIMAJOR_AXIS":"6925.343","GP_ID":"205125321","INCLINATION":"53.0548","TIME_SYSTEM":"UTC","RCS_SIZE":"MEDIUM","FILE":"3476255","MEAN_MOTION":"15.06401691","CENTER_NAME":"EARTH","MEAN_MOTION_DOT":"0.00003103","RA_OF_ASC_NODE":"263.7113","OBJECT_NAME":"STARLINK-2163","EPOCH":"2022-06-01T13:54:30.181536","REF_FRAME":"TEME","EPHEMERIS_TYPE":"0","REV_AT_EPOCH":"7030","OBJECT_ID":"2021-017AD","LAUNCH_DATE":"2021-03-04","SITE":"AFETR","DECAY_DATE":null},{"FILE":"3476255","MEAN_MOTION":"15.06391052","INCLINATION":"53.0534","RCS_SIZE":"LARGE","TIME_SYSTEM":"UTC","RA_OF_ASC_NODE":"263.2191","CENTER_NAME":"EARTH","MEAN_MOTION_DOT":"0.00002052","REV_AT_EPOCH":"7032","OBJECT_ID":"2021-017AE","LAUNCH_DATE":"2021-03-04","OBJECT_NAME":"STARLINK-2164","EPOCH":"2022-06-01T16:33:44.859456","REF_FRAME":"TEME","EPHEMERIS_TYPE":"0","DECAY_DATE":null,"SITE":"AFETR","APOAPSIS":"548.416","CLASSIFICATION_TYPE":"U","PERIAPSIS":"546.066","BSTAR":"0.00015665000000","PERIOD":"95.593","TLE_LINE2":"2 47750  53.0534 263.2191 0001696  51.1077 309.0063 15.06391052 70327","ARG_OF_PERICENTER":"51.1077","OBJECT_TYPE":"PAYLOAD","MEAN_ANOMALY":"309.0063","MEAN_ELEMENT_THEORY":"SGP4","ELEMENT_SET_NO":"999","NORAD_CAT_ID":"47750","COUNTRY_CODE":"US","SEMIMAJOR_AXIS":"6925.376","GP_ID":"205125048","TLE_LINE1":"1 47750U 21017AE  22152.69010254  .00002052  00000-0  15665-3 0  9998","ECCENTRICITY":"0.00016960","MEAN_MOTION_DDOT":"0.0000000000000"},{"COUNTRY_CODE":"US","ELEMENT_SET_NO":"999","NORAD_CAT_ID":"47751","MEAN_ANOMALY":"306.0337","MEAN_ELEMENT_THEORY":"SGP4","ECCENTRICITY":"0.00016530","TLE_LINE1":"1 47751U 21017AF  22152.32242549  .00003853  00000-0  27739-3 0  9998","MEAN_MOTION_DDOT":"0.0000000000000","GP_ID":"205123821","SEMIMAJOR_AXIS":"6925.347","PERIOD":"95.592","BSTAR":"0.00027739000000","PERIAPSIS":"546.067","APOAPSIS":"548.356","CLASSIFICATION_TYPE":"U","OBJECT_TYPE":"PAYLOAD","ARG_OF_PERICENTER":"54.0805","TLE_LINE2":"2 47751  53.0555 254.8513 0001653  54.0805 306.0337 15.06400609 70419","EPOCH":"2022-06-01T07:44:17.562336","EPHEMERIS_TYPE":"0","REF_FRAME":"TEME","OBJECT_NAME":"STARLINK-2168","REV_AT_EPOCH":"7041","OBJECT_ID":"2021-017AF","LAUNCH_DATE":"2021-03-04","SITE":"AFETR","DECAY_DATE":null,"INCLINATION":"53.0555","TIME_SYSTEM":"UTC","RCS_SIZE":"MEDIUM","MEAN_MOTION":"15.06400609","FILE":"3476255","CENTER_NAME":"EARTH","MEAN_MOTION_DOT":"0.00003853","RA_OF_ASC_NODE":"254.8513"},{"MEAN_MOTION":"15.06394392","FILE":"3476255","TIME_SYSTEM":"UTC","RCS_SIZE":"MEDIUM","INCLINATION":"53.0542","RA_OF_ASC_NODE":"268.5214","MEAN_MOTION_DOT":"0.00002752","CENTER_NAME":"EARTH","LAUNCH_DATE":"2021-03-04","OBJECT_ID":"2021-017AG","REV_AT_EPOCH":"7029","EPHEMERIS_TYPE":"0","REF_FRAME":"TEME","EPOCH":"2022-06-01T14:54:52.671744","OBJECT_NAME":"STARLINK-2169","DECAY_DATE":null,"SITE":"AFETR","PERIAPSIS":"545.623","APOAPSIS":"548.839","CLASSIFICATION_TYPE":"U","PERIOD":"95.592","BSTAR":"0.00020359000000","ARG_OF_PERICENTER":"74.6714","TLE_LINE2":"2 47752  53.0542 268.5214 0002322  74.6714 285.4532 15.06394392 70291","OBJECT_TYPE":"PAYLOAD","NORAD_CAT_ID":"47752","ELEMENT_SET_NO":"999","MEAN_ELEMENT_THEORY":"SGP4","MEAN_ANOMALY":"285.4532","COUNTRY_CODE":"US","GP_ID":"205124569","SEMIMAJOR_AXIS":"6925.366","ECCENTRICITY":"0.00023220","TLE_LINE1":"1 47752U 21017AG  22152.62144296  .00002752  00000-0  20359-3 0  9990","MEAN_MOTION_DDOT":"0.0000000000000"},{"COUNTRY_CODE":"US","NORAD_CAT_ID":"47753","ELEMENT_SET_NO":"999","MEAN_ELEMENT_THEORY":"SGP4","MEAN_ANOMALY":"300.6502","ECCENTRICITY":"0.00015050","TLE_LINE1":"1 47753U 21017AH  22152.59702815  .00002006  00000-0  15353-3 0  9994","MEAN_MOTION_DDOT":"0.0000000000000","GP_ID":"205124822","SEMIMAJOR_AXIS":"6925.358","PERIOD":"95.592","BSTAR":"0.00015353000000","PERIAPSIS":"546.181","APOAPSIS":"548.265","CLASSIFICATION_TYPE":"U","OBJECT_TYPE":"PAYLOAD","ARG_OF_PERICENTER":"59.4635","TLE_LINE2":"2 47753  53.0546 273.6363 0001505  59.4635 300.6502 15.06396936 70218","REF_FRAME":"TEME","EPHEMERIS_TYPE":"0","EPOCH":"2022-06-01T14:19:43.232160","OBJECT_NAME":"STARLINK-2170","LAUNCH_DATE":"2021-03-04","REV_AT_EPOCH":"7021","OBJECT_ID":"2021-017AH","SITE":"AFETR","DECAY_DATE":null,"RCS_SIZE":"LARGE","TIME_SYSTEM":"UTC","INCLINATION":"53.0546","MEAN_MOTION":"15.06396936","FILE":"3476255","CENTER_NAME":"EARTH","MEAN_MOTION_DOT":"0.00002006","RA_OF_ASC_NODE":"273.6363"},{"RA_OF_ASC_NODE":"273.4773","MEAN_MOTION_DOT":"0.00002000","CENTER_NAME":"EARTH","FILE":"3476255","MEAN_MOTION":"15.06390447","INCLINATION":"53.0545","TIME_SYSTEM":"UTC","RCS_SIZE":"LARGE","DECAY_DATE":null,"SITE":"AFETR","OBJECT_ID":"2021-017AJ","REV_AT_EPOCH":"7018","LAUNCH_DATE":"2021-03-04","OBJECT_NAME":"STARLINK-2171","EPOCH":"2022-06-01T15:12:48.089952","REF_FRAME":"TEME","EPHEMERIS_TYPE":"0","TLE_LINE2":"2 47754  53.0545 273.4773 0001677  52.5694 307.5448 15.06390447 70182","ARG_OF_PERICENTER":"52.5694","OBJECT_TYPE":"PAYLOAD","APOAPSIS":"548.404","CLASSIFICATION_TYPE":"U","PERIAPSIS":"546.081","BSTAR":"0.00015314000000","PERIOD":"95.593","SEMIMAJOR_AXIS":"6925.378","GP_ID":"205125548","MEAN_MOTION_DDOT":"0.0000000000000","TLE_LINE1":"1 47754U 21017AJ  22152.63388993  .00002000  00000-0  15314-3 0  9998","ECCENTRICITY":"0.00016770","MEAN_ANOMALY":"307.5448","MEAN_ELEMENT_THEORY":"SGP4","ELEMENT_SET_NO":"999","NORAD_CAT_ID":"47754","COUNTRY_CODE":"US"},{"MEAN_MOTION":"15.06407033","FILE":"3476255","INCLINATION":"53.0544","RCS_SIZE":"LARGE","TIME_SYSTEM":"UTC","RA_OF_ASC_NODE":"273.4875","MEAN_MOTION_DOT":"0.00003568","CENTER_NAME":"EARTH","REV_AT_EPOCH":"7022","OBJECT_ID":"2021-017AL","LAUNCH_DATE":"2021-03-04","OBJECT_NAME":"STARLINK-2174","EPOCH":"2022-06-01T15:07:29.409600","EPHEMERIS_TYPE":"0","REF_FRAME":"TEME","DECAY_DATE":null,"SITE":"AFETR","APOAPSIS":"548.314","CLASSIFICATION_TYPE":"U","PERIAPSIS":"546.070","BSTAR":"0.00025826000000","PERIOD":"95.592","TLE_LINE2":"2 47756  53.0544 273.4875 0001620  62.4854 297.6300 15.06407033 70223","ARG_OF_PERICENTER":"62.4854","OBJECT_TYPE":"PAYLOAD","MEAN_ANOMALY":"297.6300","MEAN_ELEMENT_THEORY":"SGP4","ELEMENT_SET_NO":"999","NORAD_CAT_ID":"47756","COUNTRY_CODE":"US","SEMIMAJOR_AXIS":"6925.327","GP_ID":"205124320","MEAN_MOTION_DDOT":"0.0000000000000","TLE_LINE1":"1 47756U 21017AL  22152.63020150  .00003568  00000-0  25826-3 0  9997","ECCENTRICITY":"0.00016200"}];
